$$SOE
2460721.500000000, A.D. 2025-Feb-15 00:00:00.0000, 7.547402254514962E+07, -3.622908308310583E+08, 2.004912840221019E+07,
2460728.500000000, A.D. 2025-Feb-22 00:00:00.0000, 8.583722276784658E+07, -3.590736016568521E+08, 1.984113098274274E+07,
2460735.500000000, A.D. 2025-Mar-01 00:00:00.0000, 9.611796807963105E+07, -3.555115480761355E+08, 1.961407622953622E+07,
2460742.500000000, A.D. 2025-Mar-08 00:00:00.0000, 1.063056894657415E+08, -3.516055137057123E+08, 1.936803971687269E+07,
2460749.500000000, A.D. 2025-Mar-15 00:00:00.0000, 1.163897213433698E+08, -3.473565977281299E+08, 1.910311167572589E+07,
2460756.500000000, A.D. 2025-Mar-22 00:00:00.0000, 1.263593000715571E+08, -3.427661638049479E+08, 1.881939775776745E+07,
2460763.500000000, A.D. 2025-Mar-29 00:00:00.0000, 1.362035642727545E+08, -3.378358517640207E+08, 1.851701951809448E+07,
2460770.500000000, A.D. 2025-Apr-05 00:00:00.0000, 1.459115573401957E+08, -3.325675889254850E+08, 1.819611484314163E+07,
2460777.500000000, A.D. 2025-Apr-12 00:00:00.0000, 1.554722302561491E+08, -3.269636009639208E+08, 1.785683850876577E+07,
2460784.500000000, A.D. 2025-Apr-19 00:00:00.0000, 1.648744445877415E+08, -3.210264231860509E+08, 1.749936281321880E+07,
2460791.500000000, A.D. 2025-Apr-26 00:00:00.0000, 1.741069759894383E+08, -3.147589124218929E+08, 1.712387824289885E+07,
2460798.500000000, A.D. 2025-May-03 00:00:00.0000, 1.831585183866684E+08, -3.081642595019258E+08, 1.673059416127802E+07,
2460805.500000000, A.D. 2025-May-10 00:00:00.0000, 1.920176889330720E+08, -3.012460022992426E+08, 1.631973951804164E+07,
2460812.500000000, A.D. 2025-May-17 00:00:00.0000, 2.006730338457399E+08, -2.940080393601254E+08, 1.589156357025184E+07,
2460819.500000000, A.D. 2025-May-24 00:00:00.0000, 2.091130353652489E+08, -2.864546441554232E+08, 1.544633659366277E+07,
2460826.500000000, A.D. 2025-May-31 00:00:00.0000, 2.173261203355086E+08, -2.785904796174527E+08, 1.498435057029159E+07,
2460833.500000000, A.D. 2025-Jun-07 00:00:00.0000, 2.253006700798847E+08, -2.704206117298095E+08, 1.450591998636170E+07,
2460840.500000000, A.D. 2025-Jun-14 00:00:00.0000, 2.330250292836027E+08, -2.619505227987912E+08, 1.401138290036605E+07,
2460847.500000000, A.D. 2025-Jun-21 00:00:00.0000, 2.404875151740306E+08, -2.531861276231897E+08, 1.350110189767857E+07,
2460854.500000000, A.D. 2025-Jun-28 00:00:00.0000, 2.476764302101533E+08, -2.441337907304267E+08, 1.297546478381138E+07,
2460861.500000000, A.D. 2025-Jul-05 00:00:00.0000, 2.545800768578498E+08, -2.348003424502361E+08, 1.243488532731669E+07,
2460868.500000000, A.D. 2025-Jul-12 00:00:00.0000, 2.611867733582419E+08, -2.251930945556055E+08, 1.187980409220070E+07,
2460875.500000000, A.D. 2025-Jul-19 00:00:00.0000, 2.674848707759607E+08, -2.153198559643869E+08, 1.131068929190059E+07,
2460882.500000000, A.D. 2025-Jul-26 00:00:00.0000, 2.734627716301235E+08, -2.051889484655751E+08, 1.072803763645997E+07,
2460889.500000000, A.D. 2025-Aug-02 00:00:00.0000, 2.791089502614912E+08, -1.948092223412492E+08, 1.013237516280568E+07,
2460896.500000000, A.D. 2025-Aug-09 00:00:00.0000, 2.844119750424386E+08, -1.841900717754453E+08, 9.524258037509717E+06,
2460903.500000000, A.D. 2025-Aug-16 00:00:00.0000, 2.893605325830298E+08, -1.733414499727581E+08, 8.904273311045401E+06,
2460910.500000000, A.D. 2025-Aug-23 00:00:00.0000, 2.939434542945812E+08, -1.622738838100126E+08, 8.273039587999679E+06,
2460917.500000000, A.D. 2025-Aug-30 00:00:00.0000, 2.981497457044961E+08, -1.509984871280103E+08, 7.631207631280556E+06,
2460924.500000000, A.D. 2025-Sep-06 00:00:00.0000, 3.019686171642989E+08, -1.395269714711731E+08, 6.979461102221765E+06,
2460931.500000000, A.D. 2025-Sep-13 00:00:00.0000, 3.053895143254487E+08, -1.278716565505819E+08, 6.318517375538737E+06,
2460938.500000000, A.D. 2025-Sep-20 00:00:00.0000, 3.084021516843309E+08, -1.160454818450098E+08, 5.649127981493048E+06,
2460945.500000000, A.D. 2025-Sep-27 00:00:00.0000, 3.109965502716145E+08, -1.040620159812532E+08, 4.972078819245033E+06,
2460952.500000000, A.D. 2025-Oct-04 00:00:00.0000, 3.131630774699012E+08, -9.193546309665930E+07, 4.288190356931962E+06,
2460959.500000000, A.D. 2025-Oct-11 00:00:00.0000, 3.148924885612909E+08, -7.968066685678220E+07, 3.598317761085577E+06,
2460966.500000000, A.D. 2025-Oct-18 00:00:00.0000, 3.161759702337326E+08, -6.731311211847883E+07, 2.903350891206790E+06,
2460973.500000000, A.D. 2025-Oct-25 00:00:00.0000, 3.170051860983809E+08, -5.484892392987882E+07, 2.204214130993247E+06,
2460980.500000000, A.D. 2025-Nov-01 00:00:00.0000, 3.173723241355188E+08, -4.230486354304820E+07, 1.501866036720866E+06,
2460987.500000000, A.D. 2025-Nov-08 00:00:00.0000, 3.172701459448834E+08, -2.969832115490087E+07, 7.972987796147130E+05,
2460994.500000000, A.D. 2025-Nov-15 00:00:00.0000, 3.166920377484681E+08, -1.704730511746559E+07, 9.153734613460302E+04,
2461001.500000000, A.D. 2025-Nov-22 00:00:00.0000, 3.156320632997829E+08, -4.370427081786456E+06, -6.143615408561875E+05,
2461008.500000000, A.D. 2025-Nov-29 00:00:00.0000, 3.140850182495826E+08, 8.313118374778293E+06, -1.319310690159478E+06,
2461015.500000000, A.D. 2025-Dec-06 00:00:00.0000, 3.120464833595606E+08, 2.098357980477553E+07, -2.022193716277173E+06,
2461022.500000000, A.D. 2025-Dec-13 00:00:00.0000, 3.095128766185784E+08, 3.362067753197263E+07, -2.721866649030944E+06,
2461029.500000000, A.D. 2025-Dec-20 00:00:00.0000, 3.064815073102146E+08, 4.620363614659292E+07, -3.417160129423514E+06,
2461036.500000000, A.D. 2025-Dec-27 00:00:00.0000, 3.029506304636801E+08, 5.871122366236207E+07, -4.106881892298587E+06,
2461043.500000000, A.D. 2026-Jan-03 00:00:00.0000, 2.989194996920425E+08, 7.112179689201851E+07, -4.789819460023377E+06,
2461050.500000000, A.D. 2026-Jan-10 00:00:00.0000, 2.943884179457943E+08, 8.341335248051669E+07, -5.464743117530446E+06,
2461057.500000000, A.D. 2026-Jan-17 00:00:00.0000, 2.893587857907249E+08, 9.556358356078938E+07, -6.130409198821757E+06,
2461064.500000000, A.D. 2026-Jan-24 00:00:00.0000, 2.838331466290707E+08, 1.075499420412031E+08, -6.785563687458009E+06,
2461071.500000000, A.D. 2026-Jan-31 00:00:00.0000, 2.778152282013220E+08, 1.193497064258554E+08, -7.428946126484171E+06,
2461078.500000000, A.D. 2026-Feb-07 00:00:00.0000, 2.713099797274716E+08, 1.309400549340987E+08, -8.059293835886285E+06,
2461085.500000000, A.D. 2026-Feb-14 00:00:00.0000, 2.643236042345970E+08, 1.422981436360039E+08, -8.675346444848843E+06,
2461092.500000000, A.D. 2026-Feb-21 00:00:00.0000, 2.568635857588926E+08, 1.534011898108791E+08, -9.275850705345713E+06,
2461099.500000000, A.D. 2026-Feb-28 00:00:00.0000, 2.489387096467676E+08, 1.642265612097464E+08, -9.859565365246385E+06,
2461106.500000000, A.D. 2026-Mar-07 00:00:00.0000, 2.405590732491811E+08, 1.747518687142139E+08, -1.042526603635101E+07,
2461113.500000000, A.D. 2026-Mar-14 00:00:00.0000, 2.317360892136967E+08, 1.849550593948233E+08, -1.097175046497727E+07,
2461120.500000000, A.D. 2026-Mar-21 00:00:00.0000, 2.224824826365140E+08, 1.948145120838079E+08, -1.149784408998525E+07,
2461127.500000000, A.D. 2026-Mar-28 00:00:00.0000, 2.128122796093936E+08, 2.043091356195413E+08, -1.200240557080282E+07,
2461134.500000000, A.D. 2026-Apr-04 00:00:00.0000, 2.027407861969011E+08, 2.134184678578172E+08, -1.248433225393169E+07,
2461141.500000000, A.D. 2026-Apr-11 00:00:00.0000, 1.922845578751498E+08, 2.221227741026509E+08, -1.294256557329403E+07,
2461148.500000000, A.D. 2026-Apr-18 00:00:00.0000, 1.814613594916487E+08, 2.304031439265899E+08, -1.337609633917749E+07,
2461155.500000000, A.D. 2026-Apr-25 00:00:00.0000, 1.702901158444237E+08, 2.382415853389248E+08, -1.378396985928266E+07,
2461162.500000000, A.D. 2026-May-02 00:00:00.0000, 1.587908531083302E+08, 2.456211151942404E+08, -1.416529083862922E+07,
2461169.500000000, A.D. 2026-May-09 00:00:00.0000, 1.469846315685016E+08, 2.525258447015897E+08, -1.451922801741679E+07,
2461176.500000000, A.D. 2026-May-16 00:00:00.0000, 1.348934705130280E+08, 2.589410591355371E+08, -1.484501851423852E+07,
2461183.500000000, A.D. 2026-May-23 00:00:00.0000, 1.225402659539238E+08, 2.648532917954330E+08, -1.514197174410062E+07,
2461190.500000000, A.D. 2026-May-30 00:00:00.0000, 1.099486998456056E+08, 2.702503916232117E+08, -1.540947264652269E+07,
2461197.500000000, A.D. 2026-Jun-06 00:00:00.0000, 9.714314133395156E+07, 2.751215804014271E+08, -1.564698441655476E+07,
2461204.500000000, A.D. 2026-Jun-13 00:00:00.0000, 8.414854467366239E+07, 2.794574990743578E+08, -1.585405102439225E+07,
2461211.500000000, A.D. 2026-Jun-20 00:00:00.0000, 7.099034438224146E+07, 2.832502455790788E+08, -1.603029921360883E+07,
2461218.500000000, A.D. 2026-Jun-27 00:00:00.0000, 5.769434705209224E+07, 2.864934034430441E+08, -1.617543983046551E+07,
2461225.500000000, A.D. 2026-Jul-04 00:00:00.0000, 4.428662097992875E+07, 2.891820601308563E+08, -1.628926853689116E+07,
2461232.500000000, A.D. 2026-Jul-11 00:00:00.0000, 3.079338504557809E+07, 2.913128149259760E+08, -1.637166593994087E+07,
2461239.500000000, A.D. 2026-Jul-18 00:00:00.0000, 1.724089810361167E+07, 2.928837764477771E+08, -1.642259715175588E+07,
2461246.500000000, A.D. 2026-Jul-25 00:00:00.0000, 3.655350051140197E+06, 2.938945500335320E+08, -1.644211079806057E+07,
2461253.500000000, A.D. 2026-Aug-01 00:00:00.0000, -9.937244295467094E+06, 2.943462153076951E+08, -1.643033750735724E+07,
2461260.500000000, A.D. 2026-Aug-08 00:00:00.0000, -2.351114729007410E+07, 2.942412944046948E+08, -1.638748793429407E+07,
2461267.500000000, A.D. 2026-Aug-15 00:00:00.0000, -3.704099518052093E+07, 2.935837119158939E+08, -1.631385035564011E+07,
2461274.500000000, A.D. 2026-Aug-22 00:00:00.0000, -5.050188941621433E+07, 2.923787485077306E+08, -1.620978771288705E+07,
2461281.500000000, A.D. 2026-Aug-29 00:00:00.0000, -6.386948412403690E+07, 2.906329876403413E+08, -1.607573405158451E+07,
2461288.500000000, A.D. 2026-Sep-05 00:00:00.0000, -7.712006704314290E+07, 2.883542533599437E+08, -1.591219083372456E+07,
$$EOE